<?xml version="1.0" encoding="UTF-8"?>
<ndm xmlns:xsi="http://www.w3.org/2001/XMLSchema-instance" xsi:noNamespaceSchemaLocation="https://sanaregistry.org/r/ndmxml_unqualified/ndmxml-2.0.0-master-2.0.xsd">
<omm id="CCSDS_OMM_VERS" version="2.0">
<header><CREATION_DATE/><ORIGINATOR/></header><body><segment><metadata><OBJECT_NAME>KUIPER-00232</OBJECT_NAME><OBJECT_ID>2025-301R</OBJECT_ID><CENTER_NAME>EARTH</CENTER_NAME><REF_FRAME>TEME</REF_FRAME><TIME_SYSTEM>UTC</TIME_SYSTEM><MEAN_ELEMENT_THEORY>SGP4</MEAN_ELEMENT_THEORY></metadata><data><meanElements><EPOCH>2026-01-22T22:00:01.999584</EPOCH><MEAN_MOTION>15.37330735</MEAN_MOTION><ECCENTRICITY>.00030701</ECCENTRICITY><INCLINATION>51.8726</INCLINATION><RA_OF_ASC_NODE>286.1700</RA_OF_ASC_NODE><ARG_OF_PERICENTER>123.7294</ARG_OF_PERICENTER><MEAN_ANOMALY>144.7882</MEAN_ANOMALY></meanElements><tleParameters><EPHEMERIS_TYPE>0</EPHEMERIS_TYPE><CLASSIFICATION_TYPE>U</CLASSIFICATION_TYPE><NORAD_CAT_ID>67148</NORAD_CAT_ID><ELEMENT_SET_NO>999</ELEMENT_SET_NO><REV_AT_EPOCH>464</REV_AT_EPOCH><BSTAR>.14199616E-3</BSTAR><MEAN_MOTION_DOT>.4888E-4</MEAN_MOTION_DOT><MEAN_MOTION_DDOT>0</MEAN_MOTION_DDOT></tleParameters></data></segment></body></omm>
<omm id="CCSDS_OMM_VERS" version="2.0">
<header><CREATION_DATE/><ORIGINATOR/></header><body><segment><metadata><OBJECT_NAME>KUIPER-00241</OBJECT_NAME><OBJECT_ID>2025-301S</OBJECT_ID><CENTER_NAME>EARTH</CENTER_NAME><REF_FRAME>TEME</REF_FRAME><TIME_SYSTEM>UTC</TIME_SYSTEM><MEAN_ELEMENT_THEORY>SGP4</MEAN_ELEMENT_THEORY></metadata><data><meanElements><EPOCH>2026-01-22T17:56:22.756704</EPOCH><MEAN_MOTION>15.37152231</MEAN_MOTION><ECCENTRICITY>.0002581</ECCENTRICITY><INCLINATION>51.8734</INCLINATION><RA_OF_ASC_NODE>287.0900</RA_OF_ASC_NODE><ARG_OF_PERICENTER>168.8478</ARG_OF_PERICENTER><MEAN_ANOMALY>191.2566</MEAN_ANOMALY></meanElements><tleParameters><EPHEMERIS_TYPE>0</EPHEMERIS_TYPE><CLASSIFICATION_TYPE>U</CLASSIFICATION_TYPE><NORAD_CAT_ID>67149</NORAD_CAT_ID><ELEMENT_SET_NO>999</ELEMENT_SET_NO><REV_AT_EPOCH>700</REV_AT_EPOCH><BSTAR>.1507716E-2</BSTAR><MEAN_MOTION_DOT>.5572E-3</MEAN_MOTION_DOT><MEAN_MOTION_DDOT>0</MEAN_MOTION_DDOT></tleParameters></data></segment></body></omm>
<omm id="CCSDS_OMM_VERS" version="2.0">
<header><CREATION_DATE/><ORIGINATOR/></header><body><segment><metadata><OBJECT_NAME>KUIPER-00245</OBJECT_NAME><OBJECT_ID>2025-301T</OBJECT_ID><CENTER_NAME>EARTH</CENTER_NAME><REF_FRAME>TEME</REF_FRAME><TIME_SYSTEM>UTC</TIME_SYSTEM><MEAN_ELEMENT_THEORY>SGP4</MEAN_ELEMENT_THEORY></metadata><data><meanElements><EPOCH>2026-01-22T22:00:01.999584</EPOCH><MEAN_MOTION>15.10988056</MEAN_MOTION><ECCENTRICITY>.00092406</ECCENTRICITY><INCLINATION>51.8903</INCLINATION><RA_OF_ASC_NODE>288.0436</RA_OF_ASC_NODE><ARG_OF_PERICENTER>232.7352</ARG_OF_PERICENTER><MEAN_ANOMALY>137.7693</MEAN_ANOMALY></meanElements><tleParameters><EPHEMERIS_TYPE>0</EPHEMERIS_TYPE><CLASSIFICATION_TYPE>U</CLASSIFICATION_TYPE><NORAD_CAT_ID>67150</NORAD_CAT_ID><ELEMENT_SET_NO>999</ELEMENT_SET_NO><REV_AT_EPOCH>591</REV_AT_EPOCH><BSTAR>-.63646061E-1</BSTAR><MEAN_MOTION_DOT>-.99098E-2</MEAN_MOTION_DOT><MEAN_MOTION_DDOT>0</MEAN_MOTION_DDOT></tleParameters></data></segment></body></omm>
<omm id="CCSDS_OMM_VERS" version="2.0">
<header><CREATION_DATE/><ORIGINATOR/></header><body><segment><metadata><OBJECT_NAME>KUIPER-00246</OBJECT_NAME><OBJECT_ID>2025-301U</OBJECT_ID><CENTER_NAME>EARTH</CENTER_NAME><REF_FRAME>TEME</REF_FRAME><TIME_SYSTEM>UTC</TIME_SYSTEM><MEAN_ELEMENT_THEORY>SGP4</MEAN_ELEMENT_THEORY></metadata><data><meanElements><EPOCH>2026-01-22T18:05:23.499744</EPOCH><MEAN_MOTION>15.37033754</MEAN_MOTION><ECCENTRICITY>.00034739</ECCENTRICITY><INCLINATION>51.8730</INCLINATION><RA_OF_ASC_NODE>287.1326</RA_OF_ASC_NODE><ARG_OF_PERICENTER>189.3443</ARG_OF_PERICENTER><MEAN_ANOMALY>170.7480</MEAN_ANOMALY></meanElements><tleParameters><EPHEMERIS_TYPE>0</EPHEMERIS_TYPE><CLASSIFICATION_TYPE>U</CLASSIFICATION_TYPE><NORAD_CAT_ID>67151</NORAD_CAT_ID><ELEMENT_SET_NO>999</ELEMENT_SET_NO><REV_AT_EPOCH>669</REV_AT_EPOCH><BSTAR>.11633975E-2</BSTAR><MEAN_MOTION_DOT>.4267E-3</MEAN_MOTION_DOT><MEAN_MOTION_DDOT>0</MEAN_MOTION_DDOT></tleParameters></data></segment></body></omm>
<omm id="CCSDS_OMM_VERS" version="2.0">
<header><CREATION_DATE/><ORIGINATOR/></header><body><segment><metadata><OBJECT_NAME>KUIPER-00247</OBJECT_NAME><OBJECT_ID>2025-301V</OBJECT_ID><CENTER_NAME>EARTH</CENTER_NAME><REF_FRAME>TEME</REF_FRAME><TIME_SYSTEM>UTC</TIME_SYSTEM><MEAN_ELEMENT_THEORY>SGP4</MEAN_ELEMENT_THEORY></metadata><data><meanElements><EPOCH>2026-01-20T23:30:37.916928</EPOCH><MEAN_MOTION>15.34749468</MEAN_MOTION><ECCENTRICITY>.00115891</ECCENTRICITY><INCLINATION>51.8634</INCLINATION><RA_OF_ASC_NODE>296.2072</RA_OF_ASC_NODE><ARG_OF_PERICENTER>243.0868</ARG_OF_PERICENTER><MEAN_ANOMALY>116.8934</MEAN_ANOMALY></meanElements><tleParameters><EPHEMERIS_TYPE>0</EPHEMERIS_TYPE><CLASSIFICATION_TYPE>U</CLASSIFICATION_TYPE><NORAD_CAT_ID>67152</NORAD_CAT_ID><ELEMENT_SET_NO>999</ELEMENT_SET_NO><REV_AT_EPOCH>639</REV_AT_EPOCH><BSTAR>.14326914E-2</BSTAR><MEAN_MOTION_DOT>.4903E-3</MEAN_MOTION_DOT><MEAN_MOTION_DDOT>0</MEAN_MOTION_DDOT></tleParameters></data></segment></body></omm>
<omm id="CCSDS_OMM_VERS" version="2.0">
<header><CREATION_DATE/><ORIGINATOR/></header><body><segment><metadata><OBJECT_NAME>KUIPER-00248</OBJECT_NAME><OBJECT_ID>2025-301W</OBJECT_ID><CENTER_NAME>EARTH</CENTER_NAME><REF_FRAME>TEME</REF_FRAME><TIME_SYSTEM>UTC</TIME_SYSTEM><MEAN_ELEMENT_THEORY>SGP4</MEAN_ELEMENT_THEORY></metadata><data><meanElements><EPOCH>2026-01-22T11:03:10.341504</EPOCH><MEAN_MOTION>15.35373595</MEAN_MOTION><ECCENTRICITY>.00099947</ECCENTRICITY><INCLINATION>51.8673</INCLINATION><RA_OF_ASC_NODE>288.8991</RA_OF_ASC_NODE><ARG_OF_PERICENTER>227.5049</ARG_OF_PERICENTER><MEAN_ANOMALY>132.5093</MEAN_ANOMALY></meanElements><tleParameters><EPHEMERIS_TYPE>0</EPHEMERIS_TYPE><CLASSIFICATION_TYPE>U</CLASSIFICATION_TYPE><NORAD_CAT_ID>67153</NORAD_CAT_ID><ELEMENT_SET_NO>999</ELEMENT_SET_NO><REV_AT_EPOCH>679</REV_AT_EPOCH><BSTAR>.11165025E-2</BSTAR><MEAN_MOTION_DOT>.38824E-3</MEAN_MOTION_DOT><MEAN_MOTION_DDOT>0</MEAN_MOTION_DDOT></tleParameters></data></segment></body></omm>
<omm id="CCSDS_OMM_VERS" version="2.0">
<header><CREATION_DATE/><ORIGINATOR/></header><body><segment><metadata><OBJECT_NAME>KUIPER-00249</OBJECT_NAME><OBJECT_ID>2025-301X</OBJECT_ID><CENTER_NAME>EARTH</CENTER_NAME><REF_FRAME>TEME</REF_FRAME><TIME_SYSTEM>UTC</TIME_SYSTEM><MEAN_ELEMENT_THEORY>SGP4</MEAN_ELEMENT_THEORY></metadata><data><meanElements><EPOCH>2026-01-22T17:06:38.489472</EPOCH><MEAN_MOTION>15.36634085</MEAN_MOTION><ECCENTRICITY>.00242968</ECCENTRICITY><INCLINATION>51.8688</INCLINATION><RA_OF_ASC_NODE>287.5861</RA_OF_ASC_NODE><ARG_OF_PERICENTER>269.6543</ARG_OF_PERICENTER><MEAN_ANOMALY>90.1659</MEAN_ANOMALY></meanElements><tleParameters><EPHEMERIS_TYPE>0</EPHEMERIS_TYPE><CLASSIFICATION_TYPE>U</CLASSIFICATION_TYPE><NORAD_CAT_ID>67154</NORAD_CAT_ID><ELEMENT_SET_NO>999</ELEMENT_SET_NO><REV_AT_EPOCH>666</REV_AT_EPOCH><BSTAR>.21634419E-2</BSTAR><MEAN_MOTION_DOT>.79785E-3</MEAN_MOTION_DOT><MEAN_MOTION_DDOT>0</MEAN_MOTION_DDOT></tleParameters></data></segment></body></omm>
<omm id="CCSDS_OMM_VERS" version="2.0">
<header><CREATION_DATE/><ORIGINATOR/></header><body><segment><metadata><OBJECT_NAME>KUIPER-00250</OBJECT_NAME><OBJECT_ID>2025-301Y</OBJECT_ID><CENTER_NAME>EARTH</CENTER_NAME><REF_FRAME>TEME</REF_FRAME><TIME_SYSTEM>UTC</TIME_SYSTEM><MEAN_ELEMENT_THEORY>SGP4</MEAN_ELEMENT_THEORY></metadata><data><meanElements><EPOCH>2026-01-22T16:48:29.223936</EPOCH><MEAN_MOTION>15.36731013</MEAN_MOTION><ECCENTRICITY>.00070073</ECCENTRICITY><INCLINATION>51.8708</INCLINATION><RA_OF_ASC_NODE>287.5222</RA_OF_ASC_NODE><ARG_OF_PERICENTER>216.5024</ARG_OF_PERICENTER><MEAN_ANOMALY>143.5486</MEAN_ANOMALY></meanElements><tleParameters><EPHEMERIS_TYPE>0</EPHEMERIS_TYPE><CLASSIFICATION_TYPE>U</CLASSIFICATION_TYPE><NORAD_CAT_ID>67155</NORAD_CAT_ID><ELEMENT_SET_NO>999</ELEMENT_SET_NO><REV_AT_EPOCH>669</REV_AT_EPOCH><BSTAR>.1171258E-2</BSTAR><MEAN_MOTION_DOT>.42563E-3</MEAN_MOTION_DOT><MEAN_MOTION_DDOT>0</MEAN_MOTION_DDOT></tleParameters></data></segment></body></omm>

</ndm>
