KUIPER-00232            
1 67148U 25301R   26022.91668981  .00004888  00000+0  14200-3 0  9994
2 67148  51.8726 286.1700 0003070 123.7294 144.7882 15.37330735  4644
KUIPER-00241            
1 67149U 25301S   26022.74748561  .00055720  00000+0  15077-2 0  9992
2 67149  51.8734 287.0900 0002581 168.8478 191.2566 15.37152231  7008
KUIPER-00245            
1 67150U 25301T   26022.91668981 -.00990980  00000+0 -63646-1 0  9992
2 67150  51.8903 288.0436 0009240 232.7352 137.7693 15.10988056  5911
KUIPER-00246            
1 67151U 25301U   26022.75374421  .00042670  00000+0  11634-2 0  9991
2 67151  51.8730 287.1326 0003473 189.3443 170.7480 15.37033754  6690
KUIPER-00247            
1 67152U 25301V   26020.97960552  .00049030  00000+0  14327-2 0  9999
2 67152  51.8634 296.2072 0011589 243.0868 116.8934 15.34749468  6394
KUIPER-00248            
1 67153U 25301W   26022.46053636  .00038824  00000+0  11165-2 0  9998
2 67153  51.8673 288.8991 0009994 227.5049 132.5093 15.35373595  6790
KUIPER-00249            
1 67154U 25301X   26022.71294548  .00079785  00000+0  21634-2 0  9999
2 67154  51.8688 287.5861 0024296 269.6543  90.1659 15.36634085  6665
KUIPER-00250            
1 67155U 25301Y   26022.70033824  .00042563  00000+0  11713-2 0  9998
2 67155  51.8708 287.5222 0007007 216.5024 143.5486 15.36731013  6699
